Satellite: RS-30
Catalog number: 32953
Epoch time:      08185.74931631
Element set:      46
Inclination:      082.5016 deg
RA of node:       113.2902 deg
Eccentricity:    0.0017722
Arg of perigee:   216.9653 deg
Mean anomaly:     143.0210 deg
Mean motion:   12.42996973 rev/day
Decay rate:        1.0e-07 rev/day^2
Epoch rev:             510
Checksum:              263

/EX





From r.hoad at att.net  Thu Jul  3 20:45:49 2008
From: r.hoad at att.net (Ray Hoad)
Date: Thu, 03 Jul 2008 22:45:49 -0500
Subject: [keps]  orb08185.2l.amsat
Message-ID: <486D9CED.3030503@att.net>

SB KEPS @ AMSAT  $ORB08185.N
2Line Orbital Elements 08185.AMSAT

HR AMSAT ORBITAL ELEMENTS FOR AMATEUR SATELLITES IN NASA FORMAT
FROM WA5QGD FORT WORTH,TX July 3, 2008
Send Subscribe/unsubscribe to KEPS at 
http://www.amsat.org/mailman/listinfo/keps
BID: ORB08185.N

DECODE 2-LINE ELSETS WITH THE FOLLOWING KEY:
1 AAAAAU 00  0  0 BBBBB.BBBBBBBB  .CCCCCCCC  00000-0  00000-0 0  DDDZ
2 AAAAA EEE.EEEE FFF.FFFF GGGGGGG HHH.HHHH III.IIII JJ.JJJJJJJJKKKKKZ
KEY: A-CATALOGNUM B-EPOCHTIME C-DECAY D-ELSETNUM E-INCLINATION F-RAAN
G-ECCENTRICITY H-ARGPERIGEE I-MNANOM J-MNMOTION K-ORBITNUM Z-CHECKSUM

TO ALL RADIO AMATEURS BT

AO-07
1 07530U 74089B   08185.65390340 -.00000027  00000-0  10000-3 0  2172
2 07530 101.4640 216.5992 0011663 229.6458 130.3594 12.53573671539046
AO-10
1 14129U 83058B   08183.30936577  .00000147  00000-0  10000-3 0 05252
2 14129 025.9847 207.7081 5980188 136.5615 290.3484 02.05868048188395
UO-11
1 14781U 84021B   08184.60401147  .00000273  00000-0  43640-4 0 07104
2 14781 098.1526 218.8674 0009656 029.8545 330.3223 14.79652144306131
RS-15
1 23439U 94085A   08184.97828479 -.00000039  00000-0  10000-3 0 01687
2 23439 064.8155 109.5126 0147379 119.9169 241.6484 11.27552338556746
FO-29
1 24278U 96046B   08184.87385138 -.00000043  00000-0 -80984-5 0 08219
2 24278 098.5865 099.1124 0350696 174.8452 185.6452 13.52937609586513
SO-33
1 25509U 98061B   08184.49825648  .00000249  00000-0  36758-4 0 02331
2 25509 031.4301 229.7860 0354867 161.1729 200.2392 14.28217975505801
AO-40
1 26609U 00072B   08185.52866151 -.00000199  00000-0  10000-3 0   858
2 26609 007.6040 074.2959 7919778 097.6292 347.5908 01.25582665 35241
VO-52
1 28650U 05017B   08185.81892915  .00000099  00000-0  19210-4 0  9714
2 28650 097.7904 251.9735 0028426 086.8609 273.5884 14.81478603171064
PO-63
1 29712U 07001D   08185.85367509  .00000391  00000-0  58223-4 0  5852
2 29712 097.8746 243.7273 0013836 332.8784 027.1702 14.80200540 79939
AO-16
1 20439U 90005D   08185.84268931  .00000010  00000-0  19094-4 0  3593
2 20439 098.2300 165.0532 0011580 123.4387 236.7904 14.31797435963303
LO-19
1 20442U 90005G   08183.86097530 -.00000039  00000-0  44616-6 0 02863
2 20442 098.2001 171.6653 0012599 127.4252 232.8017 14.32035237963171
AO-27
1 22825U 93061C   08185.44240607  .00000212  00000-0  10000-3 0    76
2 22825 098.3836 144.8546 0007855 207.9429 152.1308 14.29243324770095
IO-26
1 22826U 93061D   08184.79367505 -.00000003  00000-0  15031-4 0  7123
2 22826 098.3780 145.1330 0008346 206.9341 153.1411 14.29491019770099
PO-28
1 22829U 93061G   08185.89192965  .00000217  00000-0  10000-3 0  9841
2 22829 098.3651 147.2915 0009639 174.3967 185.7350 14.30193268770516
GO-32
1 25397U 98043D   08184.85932827  .00000085  00000-0  55694-4 0 06392
2 25397 098.3632 219.2469 0001228 149.4342 210.6887 14.23145652518449
NO-44
1 26931U 01043C   08184.67779430  .00000109  00000-0  74704-4 0 09191
2 26931 067.0524 244.7501 0007084 272.2461 087.7826 14.29527155352620
SO-50
1 27607U 02058C   08184.97884525  .00000019  00000-0  24970-4 0  6416
2 27607 064.5590 005.6802 0086066 276.5626 082.5694 14.71365848297294
CO-55
1 27844U 03031E   08184.65034382  .00000015  00000-0  27082-4 0  3414
2 27844 098.7151 192.7018 0011075 072.6039 287.6347 14.20585995259637
CO-57
1 27848U 03031J   08185.56626858  .00000039  00000-0  38580-4 0  2931
2 27848 098.7153 192.6972 0010754 072.6903 287.5473 14.20395027259739
AO-51
1 28375U 04025K   08184.81533105  .00000007  00000-0  14613-4 0  1384
2 28375 098.0695 208.5057 0084733 104.8281 256.2310 14.40612498210652
CO-56
1 28941U 06005C   08185.77359215  .00010168  25418-5  78080-4 0  1851
2 28941 098.1083 298.7592 0162358 341.1511 018.3656 15.57923605132624
CP4
1 31122U 07012F   08185.73384958  .00000549  00000-0  13192-3 0  3786
2 31122 098.0399 250.7140 0083805 277.2481 081.9167 14.55139006 64481
CP3
1 31128U 07012M   08185.73633459 -.00000048  00000-0  00000 0 0  3702
2 31128 098.0370 248.4749 0101355 283.7454 075.2472 14.51956699 64338
NOAA-10
1 16969U 86073A   08185.13722612  .00000031  00000-0  30922-4 0  1818
2 16969 098.7208 207.0743 0012907 131.6995 228.5292 14.27363243133713
NOAA-11
1 19531U 88089A   08185.29119030  .00000181  00000-0  11623-3 0  2190
2 19531 098.7982 274.3921 0011956 026.3243 333.8543 14.14873170 20180
NOAA-12
1 21263U 91032A   08185.55591256 -.00000101  00000-0 -23686-4 0  7361
2 21263 098.7656 187.5054 0013545 079.1835 281.0886 14.25536757890722
MET-3/5
1 21655U 91056A   08185.90640830  .00000051  00000-0  10000-3 0  4548
2 21655 082.5557 092.5781 0013205 337.6356 022.4188 13.17015950811781
MET-2/21
1 22782U 93055A   08184.75690167 -.00000009  00000-0 -21572-4 0 01865
2 22782 082.5485 099.2301 0020996 245.6027 114.2944 13.83630915749285
OKEAN-4
1 23317U 94066A   08185.72690773 -.00000014  00000-0 -47321-5 0  6305
2 23317 082.5409 299.6344 0024013 074.0776 286.3061 14.82620803740735
NOAA-14
1 23455U 94089A   08185.40119695  .00000264  00000-0  16343-3 0  2036
2 23455 098.9470 257.6536 0010419 098.8012 261.4357 14.13745360696648
SICH-1
1 23657U 95046A   08185.69439220  .00000228  00000-0  25878-4 0  4287
2 23657 082.5273 080.6586 0025752 066.7994 293.5928 14.81589767692660
NOAA-15
1 25338U 98030A   08185.44005917  .00000105  00000-0  63602-4 0  5255
2 25338 098.5532 176.8839 0010697 001.1756 358.9452 14.24712021527116
RESURS
1 25394U 98043A   08184.91670970 -.00000005  00000-0  15579-4 0 09815
2 25394 098.3877 228.1601 0001861 121.3792 238.7569 14.24163320518682
FENGYUN1
1 25730U 99025A   08185.54741485  .00000795  00000-0  49391-3 0  4751
2 25730 098.7210 160.7765 0021840 119.7638 240.5707 14.07710734471267
OKEAN-0
1 25860U 99039A   08184.59901441  .00000028  00000-0  11477-4 0 04095
2 25860 097.7503 174.4638 0000685 095.6903 264.4383 14.73527358481668
NOAA-16
1 26536U 00055A   08185.57035588 -.00000166  00000-0 -64488-4 0  9961
2 26536 099.1555 175.1058 0010511 174.4770 185.6494 14.12487535401083
NOAA-17
1 27453U 02032A   08185.42424317  .00000274  00000-0  13794-3 0  9863
2 27453 098.5335 249.5800 0012716 063.9769 296.2728 14.23986208313119
NOAA-18
1 28654U 05018A   08185.43126712 -.00000208  00000-0 -90932-4 0  4878
2 28654 098.8671 126.1627 0013278 269.5780 090.3860 14.11173740160764
HUBBLE
1 20580U 90037B   08184.50997587  .00000285  00000-0  91690-5 0  1699
2 20580 028.4693 223.2820 0003796 183.6672 176.3889 15.00390484797285
PO-34
1 25520U 98064B   08185.90458107  .00000271  00000-0  36246-5 0   286
2 25520 028.4595 066.8568 0005453 110.5740 249.5435 15.17206574535703
ISS
1 25544U 98067A   08185.54252005  .00009588  00000-0  67390-4 0  7857
2 25544 051.6399 292.2653 0008498 328.8724 140.2343 15.74921874551104
CO-58
1 28895U 05043F   08185.70927332  .00000086  00000-0  27639-4 0   603
2 28895 098.0985 079.3233 0017924 001.7223 358.4041 14.59680355142893
NCUBE2
1 28897U 05043H   08185.67187151  .00000088  00000-0  28031-4 0  5916
2 28897 098.0951 079.2153 0017624 003.0182 357.1120 14.59851668135178
FCAL
1 29667U 06055J   08146.34060426  .11864717  12752-4  73624-4 0  9790
2 29667 051.6107 065.3702 0009039 260.8350 099.5042 16.53464210 82911
FALCON
1 30776U 07006E   08185.05190854  .00000187  00000-0  16653-4 0  3456
2 30776 035.4339 057.2751 0000488 222.4690 137.5988 15.03013135 72534
MAST
1 31126U 07012K   08185.76353425  .00000097  00000-0  33013-4 0  3668
2 31126 098.0389 249.5366 0093345 280.6123 078.4580 14.53431916 64428
CAPE1
1 31130U 07012P   08185.17964081  .00000187  00000-0  54411-4 0  3445
2 31130 098.0371 247.9477 0101480 285.6617 073.3400 14.51973663 64043
CUTE1-7
1 32785U 08021C   08185.39809653  .00000018  00000-0  92016-5 0   938
2 32785 097.9922 245.2789 0016265 082.5436 277.7627 14.81372026  9809
COMPASS
1 32787U 08021E   08185.39583367  .00000058  00000-0  14318-4 0   821
2 32787 097.9874 245.2432 0017156 085.0016 275.3168 14.81428449  9809
AAUSAT2
1 32788U 08021F   08185.45854560  .00000201  00000-0  32399-4 0   835
2 32788 097.9892 245.3157 0017146 087.1409 273.1770 14.81538022  9818
DO-64
1 32789U 08021G   08185.19409293  .00000255  00000-0  39354-4 0   912
2 32789 097.9915 245.0650 0017043 085.0649 275.2509 14.81420074  9774
SEEDS
1 32791U 08021J   08185.46961033  .00000333  00000-0  49540-4 0   803
2 32791 097.9924 245.3288 0017425 083.0539 277.2659 14.81287901  9786
CANX-2
1 32797U 08021L   08185.99315246  .00001795  00000-0  23347-3 0   399
2 32797 097.9927 245.9090 0018648 087.4436 272.8703 14.81803165  8577
RS-30
1 32953U 08025A   08185.74931631  .00000010  00000-0  00000 0 0   466
2 32953 082.5016 113.2902 0017722 216.9653 143.0210 12.42996973  5104
/EX





From r.hoad at att.net  Thu Jul 10 16:20:48 2008
From: r.hoad at att.net (Ray Hoad)
Date: Thu, 10 Jul 2008 18:20:48 -0500
Subject: [keps]  orb08192.amsat
Message-ID: <48769950.1070508@att.net>

SB KEPS @ AMSAT  $ORB08192.O
Orbital Elements  08192.OSCAR

HR AMSAT ORBITAL ELEMENTS FOR OSCAR SATELLITES
FROM WA5QGD FORT WORTH,TX July 10, 2008
Send Subscribe/unsubscribe to KEPS at 
http://www.amsat.org/mailman/listinfo/keps
BID: ORB08192.O
TO ALL RADIO AMATEURS BT

